[{"OBJECT_NAME":"OSCAR 7 (AO-7)","OBJECT_ID":"1974-089B","EPOCH":"2025-09-19T15:23:07.609056","MEAN_MOTION":12.53691642,"ECCENTRICITY":0.00119136,"INCLINATION":101.9986,"RA_OF_ASC_NODE":268.0061,"ARG_OF_PERICENTER":288.3452,"MEAN_ANOMALY":192.0824,"EPHEMERIS_TYPE":0,"CLASSIFICATION_TYPE":"U","NORAD_CAT_ID":7530,"ELEMENT_SET_NO":999,"REV_AT_EPOCH":32661,"BSTAR":0.00012949753,"MEAN_MOTION_DOT":-2.6e-7,"MEAN_MOTION_DDOT":0},{"OBJECT_NAME":"PHASE 3B (AO-10)","OBJECT_ID":"1983-058B","EPOCH":"2025-09-13T01:27:09.765216","MEAN_MOTION":2.05870262,"ECCENTRICITY":0.60689933,"INCLINATION":26.3356,"RA_OF_ASC_NODE":266.5389,"ARG_OF_PERICENTER":38.4794,"MEAN_ANOMALY":352.1757,"EPHEMERIS_TYPE":0,"CLASSIFICATION_TYPE":"U","NORAD_CAT_ID":14129,"ELEMENT_SET_NO":999,"REV_AT_EPOCH":28978,"BSTAR":0,"MEAN_MOTION_DOT":1.9e-7,"MEAN_MOTION_DDOT":0},{"OBJECT_NAME":"UOSAT 2 (UO-11)","OBJECT_ID":"1984-021B","EPOCH":"2025-09-19T10:36:04.929408","MEAN_MOTION":14.89681808,"ECCENTRICITY":0.000804,"INCLINATION":97.7667,"RA_OF_ASC_NODE":226.8711,"ARG_OF_PERICENTER":12.2646,"MEAN_ANOMALY":347.8766,"EPHEMERIS_TYPE":0,"CLASSIFICATION_TYPE":"U","NORAD_CAT_ID":14781,"ELEMENT_SET_NO":999,"REV_AT_EPOCH":21680,"BSTAR":0.00017497184,"MEAN_MOTION_DOT":1.62e-5,"MEAN_MOTION_DDOT":0},{"OBJECT_NAME":"LUSAT (LO-19)","OBJECT_ID":"1990-005G","EPOCH":"2025-09-19T12:55:46.176096","MEAN_MOTION":14.33991092,"ECCENTRICITY":0.00105124,"INCLINATION":98.901,"RA_OF_ASC_NODE":271.6913,"ARG_OF_PERICENTER":280.8963,"MEAN_ANOMALY":79.1038,"EPHEMERIS_TYPE":0,"CLASSIFICATION_TYPE":"U","NORAD_CAT_ID":20442,"ELEMENT_SET_NO":999,"REV_AT_EPOCH":86360,"BSTAR":6.4124476e-5,"MEAN_MOTION_DOT":1.32e-6,"MEAN_MOTION_DDOT":0},{"OBJECT_NAME":"EYESAT A (AO-27)","OBJECT_ID":"1993-061C","EPOCH":"2025-09-19T14:17:22.125408","MEAN_MOTION":14.30829836,"ECCENTRICITY":0.00086624,"INCLINATION":98.7269,"RA_OF_ASC_NODE":324.6119,"ARG_OF_PERICENTER":166.8873,"MEAN_ANOMALY":193.2536,"EPHEMERIS_TYPE":0,"CLASSIFICATION_TYPE":"U","NORAD_CAT_ID":22825,"ELEMENT_SET_NO":999,"REV_AT_EPOCH":66830,"BSTAR":5.3567886e-5,"MEAN_MOTION_DOT":9.6e-7,"MEAN_MOTION_DDOT":0},{"OBJECT_NAME":"ITAMSAT (IO-26)","OBJECT_ID":"1993-061D","EPOCH":"2025-09-19T14:01:56.944704","MEAN_MOTION":14.31246304,"ECCENTRICITY":0.00094719,"INCLINATION":98.7217,"RA_OF_ASC_NODE":324.4929,"ARG_OF_PERICENTER":152.0291,"MEAN_ANOMALY":208.1403,"EPHEMERIS_TYPE":0,"CLASSIFICATION_TYPE":"U","NORAD_CAT_ID":22826,"ELEMENT_SET_NO":999,"REV_AT_EPOCH":66860,"BSTAR":6.0958705e-5,"MEAN_MOTION_DOT":1.16e-6,"MEAN_MOTION_DDOT":0},{"OBJECT_NAME":"RADIO ROSTO (RS-15)","OBJECT_ID":"1994-085A","EPOCH":"2025-09-19T14:44:18.538944","MEAN_MOTION":11.27581549,"ECCENTRICITY":0.01474277,"INCLINATION":64.8207,"RA_OF_ASC_NODE":20.7963,"ARG_OF_PERICENTER":54.7432,"MEAN_ANOMALY":306.7186,"EPHEMERIS_TYPE":0,"CLASSIFICATION_TYPE":"U","NORAD_CAT_ID":23439,"ELEMENT_SET_NO":999,"REV_AT_EPOCH":26539,"BSTAR":-0.00061311929,"MEAN_MOTION_DOT":-6.4e-7,"MEAN_MOTION_DDOT":0},{"OBJECT_NAME":"JAS-2 (FO-29)","OBJECT_ID":"1996-046B","EPOCH":"2025-09-19T13:29:43.387872","MEAN_MOTION":13.53253775,"ECCENTRICITY":0.0350908,"INCLINATION":98.5577,"RA_OF_ASC_NODE":142.9622,"ARG_OF_PERICENTER":78.3612,"MEAN_ANOMALY":285.6685,"EPHEMERIS_TYPE":0,"CLASSIFICATION_TYPE":"U","NORAD_CAT_ID":24278,"ELEMENT_SET_NO":999,"REV_AT_EPOCH":43656,"BSTAR":3.0430331e-5,"MEAN_MOTION_DOT":-3.0e-8,"MEAN_MOTION_DDOT":0},{"OBJECT_NAME":"TECHSAT 1B (GO-32)","OBJECT_ID":"1998-043D","EPOCH":"2025-09-19T13:14:13.494912","MEAN_MOTION":14.24339672,"ECCENTRICITY":2.885e-5,"INCLINATION":98.9824,"RA_OF_ASC_NODE":243.8525,"ARG_OF_PERICENTER":312.0008,"MEAN_ANOMALY":48.1145,"EPHEMERIS_TYPE":0,"CLASSIFICATION_TYPE":"U","NORAD_CAT_ID":25397,"ELEMENT_SET_NO":999,"REV_AT_EPOCH":41280,"BSTAR":5.437482e-5,"MEAN_MOTION_DOT":7.9e-7,"MEAN_MOTION_DDOT":0},{"OBJECT_NAME":"ISS (ZARYA)","OBJECT_ID":"1998-067A","EPOCH":"2025-09-19T12:12:19.146816","MEAN_MOTION":15.50411591,"ECCENTRICITY":0.00043946,"INCLINATION":51.6334,"RA_OF_ASC_NODE":199.567,"ARG_OF_PERICENTER":356.4976,"MEAN_ANOMALY":3.5981,"EPHEMERIS_TYPE":0,"CLASSIFICATION_TYPE":"U","NORAD_CAT_ID":25544,"ELEMENT_SET_NO":999,"REV_AT_EPOCH":52979,"BSTAR":0.00025471812,"MEAN_MOTION_DOT":0.00014322,"MEAN_MOTION_DDOT":0},{"OBJECT_NAME":"PCSAT (NO-44)","OBJECT_ID":"2001-043C","EPOCH":"2025-09-19T08:31:02.114976","MEAN_MOTION":14.31780304,"ECCENTRICITY":0.00070737,"INCLINATION":67.0498,"RA_OF_ASC_NODE":224.6866,"ARG_OF_PERICENTER":275.1021,"MEAN_ANOMALY":84.9274,"EPHEMERIS_TYPE":0,"CLASSIFICATION_TYPE":"U","NORAD_CAT_ID":26931,"ELEMENT_SET_NO":999,"REV_AT_EPOCH":25167,"BSTAR":9.4337176e-5,"MEAN_MOTION_DOT":1.69e-6,"MEAN_MOTION_DDOT":0},{"OBJECT_NAME":"SAUDISAT 1C (SO-50)","OBJECT_ID":"2002-058C","EPOCH":"2025-09-19T01:25:48.896544","MEAN_MOTION":14.81899284,"ECCENTRICITY":0.00665999,"INCLINATION":64.5511,"RA_OF_ASC_NODE":247.2207,"ARG_OF_PERICENTER":312.7419,"MEAN_ANOMALY":46.8092,"EPHEMERIS_TYPE":0,"CLASSIFICATION_TYPE":"U","NORAD_CAT_ID":27607,"ELEMENT_SET_NO":999,"REV_AT_EPOCH":22426,"BSTAR":0.00023948749,"MEAN_MOTION_DOT":1.822e-5,"MEAN_MOTION_DDOT":0},{"OBJECT_NAME":"CUTE-1 (CO-55)","OBJECT_ID":"2003-031E","EPOCH":"2025-09-19T13:27:56.606112","MEAN_MOTION":14.24070397,"ECCENTRICITY":0.000848,"INCLINATION":98.6792,"RA_OF_ASC_NODE":269.5351,"ARG_OF_PERICENTER":249.3221,"MEAN_ANOMALY":110.7049,"EPHEMERIS_TYPE":0,"CLASSIFICATION_TYPE":"U","NORAD_CAT_ID":27844,"ELEMENT_SET_NO":999,"REV_AT_EPOCH":15315,"BSTAR":0.00015660402,"MEAN_MOTION_DOT":3.16e-6,"MEAN_MOTION_DDOT":0},{"OBJECT_NAME":"CUBESAT XI-IV (CO-57)","OBJECT_ID":"2003-031J","EPOCH":"2025-09-19T13:22:44.310720","MEAN_MOTION":14.23394616,"ECCENTRICITY":0.00083197,"INCLINATION":98.6822,"RA_OF_ASC_NODE":269.4595,"ARG_OF_PERICENTER":269.3725,"MEAN_ANOMALY":90.6501,"EPHEMERIS_TYPE":0,"CLASSIFICATION_TYPE":"U","NORAD_CAT_ID":27848,"ELEMENT_SET_NO":999,"REV_AT_EPOCH":15287,"BSTAR":0.0001354553,"MEAN_MOTION_DOT":2.64e-6,"MEAN_MOTION_DDOT":0},{"OBJECT_NAME":"MOZHAYETS 4 (RS-22)","OBJECT_ID":"2003-042A","EPOCH":"2025-09-19T14:29:51.259200","MEAN_MOTION":14.72594806,"ECCENTRICITY":0.00122785,"INCLINATION":98.337,"RA_OF_ASC_NODE":74.593,"ARG_OF_PERICENTER":50.6091,"MEAN_ANOMALY":24.1879,"EPHEMERIS_TYPE":0,"CLASSIFICATION_TYPE":"U","NORAD_CAT_ID":27939,"ELEMENT_SET_NO":999,"REV_AT_EPOCH":17571,"BSTAR":0.00018988628,"MEAN_MOTION_DOT":1.156e-5,"MEAN_MOTION_DDOT":0},{"OBJECT_NAME":"CUBESAT XI-V","OBJECT_ID":"2005-043F","EPOCH":"2025-09-19T08:02:32.592480","MEAN_MOTION":14.71353773,"ECCENTRICITY":0.00140842,"INCLINATION":98.2641,"RA_OF_ASC_NODE":48.0596,"ARG_OF_PERICENTER":349.0637,"MEAN_ANOMALY":11.0261,"EPHEMERIS_TYPE":0,"CLASSIFICATION_TYPE":"U","NORAD_CAT_ID":28895,"ELEMENT_SET_NO":999,"REV_AT_EPOCH":6190,"BSTAR":0.00027857441,"MEAN_MOTION_DOT":1.673e-5,"MEAN_MOTION_DDOT":0}]
