OSCAR 7 (AO-7)          
1 07530U 74089B   25262.64106029 -.00000026  00000+0  12950-3 0  9996
2 07530 101.9986 268.0061 0011913 288.3452 192.0824 12.53691642326614
PHASE 3B (AO-10)        
1 14129U 83058B   25256.06052969  .00000019  00000+0  00000+0 0  9996
2 14129  26.3356 266.5389 6068993  38.4794 352.1757  2.05870262289785
UOSAT 2 (UO-11)         
1 14781U 84021B   25262.44172372  .00001620  00000+0  17497-3 0  9992
2 14781  97.7667 226.8711 0008040  12.2646 347.8766 14.89681808216806
LUSAT (LO-19)           
1 20442U 90005G   25262.53872889  .00000132  00000+0  64124-4 0  9999
2 20442  98.9010 271.6913 0010512 280.8963  79.1038 14.33991092863607
EYESAT A (AO-27)        
1 22825U 93061C   25262.59539497  .00000096  00000+0  53568-4 0  9991
2 22825  98.7269 324.6119 0008662 166.8873 193.2536 14.30829836668305
ITAMSAT (IO-26)         
1 22826U 93061D   25262.58468686  .00000116  00000+0  60959-4 0  9997
2 22826  98.7217 324.4929 0009471 152.0291 208.1403 14.31246304668602
RADIO ROSTO (RS-15)     
1 23439U 94085A   25262.61410346 -.00000064  00000+0 -61312-3 0  9996
2 23439  64.8207  20.7963 0147427  54.7432 306.7186 11.27581549265396
JAS-2 (FO-29)           
1 24278U 96046B   25262.56230773 -.00000003  00000+0  30430-4 0  9995
2 24278  98.5577 142.9622 0350908  78.3612 285.6685 13.53253775436569
TECHSAT 1B (GO-32)      
1 25397U 98043D   25262.55154508  .00000079  00000+0  54375-4 0  9993
2 25397  98.9824 243.8525 0000288 312.0008  48.1145 14.24339672412808
ISS (ZARYA)             
1 25544U 98067A   25262.50855494  .00014322  00000+0  25472-3 0  9991
2 25544  51.6334 199.5670 0004394 356.4976   3.5981 15.50411591529791
PCSAT (NO-44)           
1 26931U 01043C   25262.35488559  .00000169  00000+0  94337-4 0  9998
2 26931  67.0498 224.6866 0007073 275.1021  84.9274 14.31780304251672
SAUDISAT 1C (SO-50)     
1 27607U 02058C   25262.05959371  .00001822  00000+0  23949-3 0  9995
2 27607  64.5511 247.2207 0066599 312.7419  46.8092 14.81899284224261
CUTE-1 (CO-55)          
1 27844U 03031E   25262.56107183  .00000316  00000+0  15660-3 0  9990
2 27844  98.6792 269.5351 0008480 249.3221 110.7049 14.24070397153156
CUBESAT XI-IV (CO-57)   
1 27848U 03031J   25262.55745730  .00000264  00000+0  13546-3 0  9992
2 27848  98.6822 269.4595 0008319 269.3725  90.6501 14.23394616152874
MOZHAYETS 4 (RS-22)     
1 27939U 03042A   25262.60406550  .00001156  00000+0  18989-3 0  9992
2 27939  98.3370  74.5930 0012278  50.6091  24.1879 14.72594806175719
CUBESAT XI-V            
1 28895U 05043F   25262.33509945  .00001673  00000+0  27857-3 0  9997
2 28895  98.2641  48.0596 0014084 349.0637  11.0261 14.71353773 61903
